*******************************************************************************
Ephemeris / WWW_USER Mon Mar 24 09:04:46 2025 Pasadena, USA      / Horizons    
*******************************************************************************
Target body name: (2017 UX51)                     {source: JPL#22}
Center body name: Earth (399)                     {source: DE441}
Center-site name: Mauna Kea
*******************************************************************************
Start time      : A.D. 2018-Oct-10 04:12:00.0000 UT      
Stop  time      : A.D. 2018-Oct-10 16:05:00.0000 UT      
Step-size       : 1 minutes
*******************************************************************************
Target pole/equ : undefined
Target radii    : undefined                                                    
Center geodetic : 204.5278, 19.8260847, 4.21024   {E-lon(deg),Lat(deg),Alt(km)}
Center cylindric: 204.5278, 6006.35451, 2151.0229 {E-lon(deg),Dxy(km),Dz(km)}
Center pole/equ : ITRF93                          {East-longitude positive}
Center radii    : 6378.137, 6378.137, 6356.752 km {Equator_a, b, pole_c}       
Target primary  : Sun
Vis. interferer : MOON (R_eq= 1737.400) km        {source: DE441}
Rel. light bend : Sun                             {source: DE441}
Rel. lght bnd GM: 1.3271E+11 km^3/s^2                                          
Small-body perts: Yes                             {source: SB441-N16}
Atmos refraction: NO (AIRLESS)
RA format       : HMS
Time format     : CAL 
Calendar mode   : Mixed Julian/Gregorian
RTS-only print  : NO       
EOP file        : eop.250321.p250617                                           
EOP coverage    : DATA-BASED 1962-JAN-20 TO 2025-MAR-21. PREDICTS-> 2025-JUN-16
Units conversion: 1 au= 149597870.700 km, c= 299792.458 km/s, 1 day= 86400.0 s 
Table cut-offs 1: Elevation (-90.0deg=NO ),Airmass (>38.000=NO), Daylight (YES)
Table cut-offs 2: Solar elongation (  0.0,180.0=NO ),Local Hour Angle( 0.0=NO )
Table cut-offs 3: RA/DEC angular rate (     0.0=NO )                           
*******************************************************************************
Initial IAU76/J2000 heliocentric ecliptic osculating elements (au, days, deg.):
  EPOCH=  2458433.5 ! 2018-Nov-11.00 (TDB)         Residual RMS= .12444        
   EC= .7474905367293002   QR= 7.612253692784782   TP= 2459819.8104231078      
   OM= 217.7952286585891   W=  255.0338939179157   IN= 90.52400691057457       
  Equivalent ICRF heliocentric cartesian coordinates (au, au/d):
   X= 8.209785034050050E+00  Y= 6.297741083246843E+00  Z= 1.446459094674425E+00
  VX=-3.080259200599625E-03 VY=-2.498125597102637E-05 VZ=-6.110805734701701E-03
Asteroid physical parameters (km, seconds, rotational period in hours):        
   GM= n.a.                RAD= n.a.               ROTPER= n.a.                
   H= 11.                  G= .150                 B-V= n.a.                   
                           ALBEDO= n.a.            STYP= n.a.                  
*******************************************************************************
 Date__(UT)__HR:MN     R.A._________(ICRF)_________DEC
******************************************************
$$SOE
 2018-Oct-10 08:18     02 37 32.331719 +09 06 53.50490
 2018-Oct-10 08:19     02 37 32.318474 +09 06 53.33835
 2018-Oct-10 08:20     02 37 32.305228 +09 06 53.17180
 2018-Oct-10 08:21     02 37 32.291981 +09 06 53.00524
 2018-Oct-10 08:22     02 37 32.278733 +09 06 52.83869
 2018-Oct-10 08:23     02 37 32.265484 +09 06 52.67213
 2018-Oct-10 08:24     02 37 32.252235 +09 06 52.50557
 2018-Oct-10 08:25     02 37 32.238984 +09 06 52.33901
 2018-Oct-10 08:26     02 37 32.225732 +09 06 52.17245
 2018-Oct-10 08:27     02 37 32.212480 +09 06 52.00588
 2018-Oct-10 08:28     02 37 32.199226 +09 06 51.83932
 2018-Oct-10 08:29     02 37 32.185972 +09 06 51.67275
 2018-Oct-10 08:30     02 37 32.172716 +09 06 51.50618
 2018-Oct-10 08:31     02 37 32.159460 +09 06 51.33960
 2018-Oct-10 08:32     02 37 32.146203 +09 06 51.17303
 2018-Oct-10 08:33     02 37 32.132944 +09 06 51.00645
 2018-Oct-10 08:34     02 37 32.119685 +09 06 50.83987
 2018-Oct-10 08:35     02 37 32.106425 +09 06 50.67329
 2018-Oct-10 08:36     02 37 32.093164 +09 06 50.50671
 2018-Oct-10 08:37     02 37 32.079902 +09 06 50.34012
 2018-Oct-10 08:38     02 37 32.066639 +09 06 50.17353
 2018-Oct-10 08:39     02 37 32.053376 +09 06 50.00694
 2018-Oct-10 08:40     02 37 32.040111 +09 06 49.84035
 2018-Oct-10 08:41     02 37 32.026846 +09 06 49.67375
 2018-Oct-10 08:42     02 37 32.013579 +09 06 49.50716
 2018-Oct-10 08:43     02 37 32.000312 +09 06 49.34056
 2018-Oct-10 08:44     02 37 31.987044 +09 06 49.17395
 2018-Oct-10 08:45     02 37 31.973775 +09 06 49.00735
 2018-Oct-10 08:46     02 37 31.960505 +09 06 48.84074
 2018-Oct-10 08:47     02 37 31.947234 +09 06 48.67414
 2018-Oct-10 08:48     02 37 31.933962 +09 06 48.50753
 2018-Oct-10 08:49     02 37 31.920689 +09 06 48.34091
 2018-Oct-10 08:50     02 37 31.907416 +09 06 48.17430
 2018-Oct-10 08:51     02 37 31.894142 +09 06 48.00768
 2018-Oct-10 08:52     02 37 31.880866 +09 06 47.84106
 2018-Oct-10 08:53     02 37 31.867590 +09 06 47.67444
 2018-Oct-10 08:54     02 37 31.854313 +09 06 47.50781
 2018-Oct-10 08:55     02 37 31.841036 +09 06 47.34119
 2018-Oct-10 08:56     02 37 31.827757 +09 06 47.17456
 2018-Oct-10 08:57     02 37 31.814477 +09 06 47.00793
 2018-Oct-10 08:58     02 37 31.801197 +09 06 46.84129
 2018-Oct-10 08:59     02 37 31.787916 +09 06 46.67466
 2018-Oct-10 09:00     02 37 31.774634 +09 06 46.50802
 2018-Oct-10 09:01     02 37 31.761351 +09 06 46.34138
 2018-Oct-10 09:02     02 37 31.748068 +09 06 46.17474
 2018-Oct-10 09:03     02 37 31.734783 +09 06 46.00809
 2018-Oct-10 09:04     02 37 31.721498 +09 06 45.84144
 2018-Oct-10 09:05     02 37 31.708212 +09 06 45.67479
 2018-Oct-10 09:06     02 37 31.694925 +09 06 45.50814
 2018-Oct-10 09:07     02 37 31.681637 +09 06 45.34149
 2018-Oct-10 09:08     02 37 31.668349 +09 06 45.17483
 2018-Oct-10 09:09     02 37 31.655059 +09 06 45.00817
 2018-Oct-10 09:10     02 37 31.641769 +09 06 44.84151
 2018-Oct-10 09:11     02 37 31.628478 +09 06 44.67484
 2018-Oct-10 09:12     02 37 31.615186 +09 06 44.50818
 2018-Oct-10 09:13     02 37 31.601894 +09 06 44.34151
 2018-Oct-10 09:14     02 37 31.588601 +09 06 44.17484
 2018-Oct-10 09:15     02 37 31.575307 +09 06 44.00816
 2018-Oct-10 09:16     02 37 31.562012 +09 06 43.84148
 2018-Oct-10 09:17     02 37 31.548716 +09 06 43.67481
 2018-Oct-10 09:18     02 37 31.535420 +09 06 43.50812
 2018-Oct-10 09:19     02 37 31.522123 +09 06 43.34144
 2018-Oct-10 09:20     02 37 31.508825 +09 06 43.17475
 2018-Oct-10 09:21     02 37 31.495526 +09 06 43.00806
 2018-Oct-10 09:22     02 37 31.482227 +09 06 42.84137
 2018-Oct-10 09:23     02 37 31.468927 +09 06 42.67468
 2018-Oct-10 09:24     02 37 31.455626 +09 06 42.50798
 2018-Oct-10 09:25     02 37 31.442324 +09 06 42.34128
 2018-Oct-10 09:26     02 37 31.429022 +09 06 42.17458
 2018-Oct-10 09:27     02 37 31.415719 +09 06 42.00788
 2018-Oct-10 09:28     02 37 31.402415 +09 06 41.84117
 2018-Oct-10 09:29     02 37 31.389110 +09 06 41.67446
 2018-Oct-10 09:30     02 37 31.375805 +09 06 41.50775
 2018-Oct-10 09:31     02 37 31.362499 +09 06 41.34103
 2018-Oct-10 09:32     02 37 31.349193 +09 06 41.17432
 2018-Oct-10 09:33     02 37 31.335885 +09 06 41.00760
 2018-Oct-10 09:34     02 37 31.322577 +09 06 40.84088
 2018-Oct-10 09:35     02 37 31.309268 +09 06 40.67415
 2018-Oct-10 09:36     02 37 31.295959 +09 06 40.50742
 2018-Oct-10 09:37     02 37 31.282649 +09 06 40.34069
 2018-Oct-10 09:38     02 37 31.269338 +09 06 40.17396
 2018-Oct-10 09:39     02 37 31.256026 +09 06 40.00723
 2018-Oct-10 09:40     02 37 31.242714 +09 06 39.84049
 2018-Oct-10 09:41     02 37 31.229401 +09 06 39.67375
 2018-Oct-10 09:42     02 37 31.216088 +09 06 39.50701
 2018-Oct-10 09:43     02 37 31.202773 +09 06 39.34026
 2018-Oct-10 09:44     02 37 31.189458 +09 06 39.17351
 2018-Oct-10 09:45     02 37 31.176143 +09 06 39.00676
 2018-Oct-10 09:46     02 37 31.162827 +09 06 38.84001
 2018-Oct-10 09:47     02 37 31.149510 +09 06 38.67325
 2018-Oct-10 09:48     02 37 31.136192 +09 06 38.50649
 2018-Oct-10 09:49     02 37 31.122874 +09 06 38.33973
 2018-Oct-10 09:50     02 37 31.109555 +09 06 38.17297
 2018-Oct-10 09:51     02 37 31.096236 +09 06 38.00620
 2018-Oct-10 09:52     02 37 31.082916 +09 06 37.83943
 2018-Oct-10 09:53     02 37 31.069595 +09 06 37.67266
 2018-Oct-10 09:54     02 37 31.056274 +09 06 37.50588
 2018-Oct-10 09:55     02 37 31.042952 +09 06 37.33911
 2018-Oct-10 09:56     02 37 31.029630 +09 06 37.17233
 2018-Oct-10 09:57     02 37 31.016307 +09 06 37.00554
 2018-Oct-10 09:58     02 37 31.002983 +09 06 36.83876
 2018-Oct-10 09:59     02 37 30.989659 +09 06 36.67197
 2018-Oct-10 10:00     02 37 30.976334 +09 06 36.50518
 2018-Oct-10 10:01     02 37 30.963008 +09 06 36.33838
 2018-Oct-10 10:02     02 37 30.949682 +09 06 36.17159
 2018-Oct-10 10:03     02 37 30.936356 +09 06 36.00479
 2018-Oct-10 10:04     02 37 30.923028 +09 06 35.83798
 2018-Oct-10 10:05     02 37 30.909701 +09 06 35.67118
 2018-Oct-10 10:06     02 37 30.896372 +09 06 35.50437
 2018-Oct-10 10:07     02 37 30.883043 +09 06 35.33756
 2018-Oct-10 10:08     02 37 30.869714 +09 06 35.17075
 2018-Oct-10 10:09     02 37 30.856384 +09 06 35.00393
 2018-Oct-10 10:10     02 37 30.843053 +09 06 34.83711
 2018-Oct-10 10:11     02 37 30.829722 +09 06 34.67029
 2018-Oct-10 10:12     02 37 30.816391 +09 06 34.50347
 2018-Oct-10 10:13     02 37 30.803058 +09 06 34.33664
 2018-Oct-10 10:14     02 37 30.789726 +09 06 34.16981
 2018-Oct-10 10:15     02 37 30.776392 +09 06 34.00298
 2018-Oct-10 10:16     02 37 30.763059 +09 06 33.83614
 2018-Oct-10 10:17     02 37 30.749724 +09 06 33.66931
 2018-Oct-10 10:18     02 37 30.736390 +09 06 33.50247
 2018-Oct-10 10:19     02 37 30.723054 +09 06 33.33562
 2018-Oct-10 10:20     02 37 30.709718 +09 06 33.16877
